OTB-3-GAZELLE           
1 54023U 22127A   26193.92952102  .00000074  00000+0  35090-4 0  9990
2 54023  98.3959 185.2434 0014385 109.1899 251.0849 14.42683520198073
ASO-S                   
1 54029U 22129A   26194.23202694  .00000114  00000+0  39281-4 0  9998
2 54029  98.2755 198.9403 0014714  18.1357 342.0360 14.52074308199207
HJ-2E                   
1 54035U 22132A   26194.17992892  .00004852  00000+0  21046-3 0  9990
2 54035  97.3797 198.0947 0018024 278.2049  81.7144 15.22678798208376
COSMOS 2561             
1 54109U 22137A   26194.20982847  .00009082  00000+0  15044-3 0  9991
2 54109  96.9178 252.2456 0008168 289.8412  70.1961 15.52341122210388
GONETS-M 23             
1 54150U 22139A   26194.18278838  .00000016  00000+0  41640-4 0  9994
2 54150  82.5093 332.1387 0022055 162.7579 197.4255 12.42891882168870
GONETS-M 24             
1 54151U 22139B   26194.15585110  .00000004  00000+0 -43897-4 0  9990
2 54151  82.5010 331.1974 0017114 172.4179 187.7163 12.42892442168878
GONETS-M 25             
1 54152U 22139C   26194.14228094  .00000007  00000+0 -21641-4 0  9991
2 54152  82.5075 331.9062 0021053 171.4660 188.6782 12.42890827168879
SKIF-D                  
1 54153U 22139D   26194.03881094  .00000008  00000+0  00000+0 0  9996
2 54153  89.9493  96.6607 0007429 188.3569 171.6996  5.00430160 65401
MATS                    
1 54227U 22147A   26193.97144926  .00001347  00000+0  97861-4 0  9998
2 54227  97.6827 195.4588 0014119 109.8507 250.4243 15.05495121201643
EOS-6 (OCEANSAT-3)      
1 54361U 22158A   26194.23194128  .00000106  00000+0  41090-4 0  9993
2 54361  98.3549 292.0815 0000314 135.5572 224.5646 14.46983732191605
DONGPO 09               
1 54685U 22167D   26194.19730617  .00006996  00000+0  19631-3 0  9994
2 54685  97.6909   6.3788 0002925  56.9897 303.1627 15.36904722199442
DONGPO 08               
1 54686U 22167E   26194.22383869  .00007187  00000+0  21968-3 0  9991
2 54686  97.6874   3.4603 0009323  79.7995 280.4298 15.34160126199316
2022-167F               
1 54687U 22167F   26194.20664418  .00891834  50390-3  70304-3 0  9991
2 54687  97.5961  25.7061 0006989 243.8212 116.2355 16.14721797200992
DONGPO 10               
1 54689U 22167H   26194.21669300  .00006607  00000+0  19724-3 0  9993
2 54689  97.6955   5.4660 0005138  34.6483 325.5093 15.34975028199359
JILIN-1 GAOFEN 03D48    
1 54695U 22167P   26194.20120523  .00006656  00000+0  19370-3 0  9999
2 54695  97.6889   4.8371 0006632  36.6967 323.4729 15.35765511199384
STAR VIBE               
1 55009U 23001A   26194.11125691  .00010187  00000+0  23050-3 0  9992
2 55009  97.3163 258.6899 0005701  37.7237 322.4410 15.43317997196224
BRO-8                   
1 55011U 23001C   26194.19664389  .00021373  00000+0  37353-3 0  9995
2 55011  97.3193 259.7824 0005073  46.9427 313.2249 15.50667211196239
CONNECTA T1.2           
1 55012U 23001D   26193.70750399  .00028991  00000+0  46968-3 0  9994
2 55012  97.3248 264.8832 0004122  16.9652 343.1738 15.52743920196507
BIRKELAND               
1 55015U 23001G   26194.19730493  .00005844  00000+0  14604-3 0  9998
2 55015  97.3340 262.2393 0006639  27.8313 332.3287 15.40517548196351
ION SCV-008             
1 55051U 23001AU  26193.83122682  .00003686  00000+0  13398-3 0  9994
2 55051  97.5722 290.5837 0013189 282.5417  77.4347 15.28863279195250
ION SCV-007             
1 55060U 23001BD  26194.13472899  .00000207  00000+0  36048-4 0  9990
2 55060  97.8994 256.6335 0010990 249.6176 110.3855 14.77575181190085
HUYGENS                 
1 55093U 23001CN  26194.19738975  .00005679  00000+0  14191-3 0  9994
2 55093  97.3244 261.4353 0008641   0.5172 359.6082 15.40516281196373
SHARJAHSAT-1            
1 55104U 23001CZ  26194.13704679  .00014814  00000+0  26515-3 0  9999
2 55104  97.3161 263.2787 0005010  27.9952 332.1569 15.50067801196513
HORUS 1                 
1 55690U 23025A   26194.16413765  .00003557  00000+0  15185-3 0  9994
2 55690  97.3460 268.2123 0002866 116.3985 243.7547 15.23526098188005
HORUS 2                 
1 55844U 23032A   26194.19942529  .00003176  00000+0  13671-3 0  9996
2 55844  97.3530 269.0771 0000943 133.3898 226.7418 15.23331713185449
GLOBAL-19               
1 55982U 23041B   26194.00355035  .00009634  00000+0  25300-3 0  9996
2 55982  42.0024  51.2695 0009325 204.1950 155.8452 15.38645913185909
ION SCV-010             
1 56192U 23054Q   26193.72835601  .00002800  00000+0  11009-3 0  9993
2 56192  97.3751  82.9031 0014513 111.9392 248.3391 15.26410810180096
TELEOS-2                
1 56310U 23057C   26194.08340753  .00003291  00000+0  22342-3 0  9994
2 56310   9.9892  15.6203 0000941 275.2393  84.7713 14.96416588176686
SNIPE 4                 
1 56744U 23072B   26194.15696909  .00015397  00000+0  34705-3 0  9993
2 56744  97.5230  41.0020 0004597 213.8820 146.2134 15.43341068174110
SNIPE 2                 
1 56745U 23072C   26194.18622437  .00019878  00000+0  37965-3 0  9991
2 56745  97.5217  44.2624 0003078 243.4442 116.6493 15.48155687174263
2023-072G               
1 56749U 23072G   26194.18745976  .00020969  00000+0  34917-3 0  9996
2 56749  97.4873  43.0985 0002232 211.8173 148.2945 15.52049217174496
