OBJECT_NAME,OBJECT_ID,EPOCH,MEAN_MOTION,ECCENTRICITY,INCLINATION,RA_OF_ASC_NODE,ARG_OF_PERICENTER,MEAN_ANOMALY,EPHEMERIS_TYPE,CLASSIFICATION_TYPE,NORAD_CAT_ID,ELEMENT_SET_NO,REV_AT_EPOCH,BSTAR,MEAN_MOTION_DOT,MEAN_MOTION_DDOT
OTB-3-GAZELLE,2022-127A,2026-07-12T22:18:30.616128,14.42683520,.0014385,98.3959,185.2434,109.1899,251.0849,0,U,54023,999,19807,.3509E-4,.74E-6,0
ASO-S,2022-129A,2026-07-13T05:34:07.127616,14.52074308,.0014714,98.2755,198.9403,18.1357,342.0360,0,U,54029,999,19920,.39281E-4,.114E-5,0
HJ-2E,2022-132A,2026-07-13T04:19:05.858688,15.22678798,.0018024,97.3797,198.0947,278.2049,81.7144,0,U,54035,999,20837,.21046E-3,.4852E-4,0
COSMOS 2561,2022-137A,2026-07-13T05:02:09.179808,15.52341122,.0008168,96.9178,252.2456,289.8412,70.1961,0,U,54109,999,21038,.15044E-3,.9082E-4,0
GONETS-M 23,2022-139A,2026-07-13T04:23:12.916032,12.42891882,.0022055,82.5093,332.1387,162.7579,197.4255,0,U,54150,999,16887,.4164E-4,.16E-6,0
GONETS-M 24,2022-139B,2026-07-13T03:44:25.535040,12.42892442,.0017114,82.5010,331.1974,172.4179,187.7163,0,U,54151,999,16887,-.43897E-4,.4E-7,0
GONETS-M 25,2022-139C,2026-07-13T03:24:53.073216,12.42890827,.0021053,82.5075,331.9062,171.4660,188.6782,0,U,54152,999,16887,-.21641E-4,.7E-7,0
SKIF-D,2022-139D,2026-07-13T00:55:53.265216,5.00430160,.0007429,89.9493,96.6607,188.3569,171.6996,0,U,54153,999,6540,0,.8E-7,0
MATS,2022-147A,2026-07-12T23:18:53.216064,15.05495121,.0014119,97.6827,195.4588,109.8507,250.4243,0,U,54227,999,20164,.97861E-4,.1347E-4,0
EOS-6 (OCEANSAT-3),2022-158A,2026-07-13T05:33:59.726592,14.46983732,.0000314,98.3549,292.0815,135.5572,224.5646,0,U,54361,999,19160,.4109E-4,.106E-5,0
DONGPO 09,2022-167D,2026-07-13T04:44:07.253088,15.36904722,.0002925,97.6909,6.3788,56.9897,303.1627,0,U,54685,999,19944,.19631E-3,.6996E-4,0
DONGPO 08,2022-167E,2026-07-13T05:22:19.662816,15.34160126,.0009323,97.6874,3.4603,79.7995,280.4298,0,U,54686,999,19931,.21968E-3,.7187E-4,0
2022-167F,2022-167F,2026-07-13T04:57:34.057152,16.14721797,.0006989,97.5961,25.7061,243.8212,116.2355,0,U,54687,999,20099,.70304E-3,.891834E-2,.5039E-3
DONGPO 10,2022-167H,2026-07-13T05:12:02.275200,15.34975028,.0005138,97.6955,5.4660,34.6483,325.5093,0,U,54689,999,19935,.19724E-3,.6607E-4,0
JILIN-1 GAOFEN 03D48,2022-167P,2026-07-13T04:49:44.131872,15.35765511,.0006632,97.6889,4.8371,36.6967,323.4729,0,U,54695,999,19938,.1937E-3,.6656E-4,0
STAR VIBE,2023-001A,2026-07-13T02:40:12.597024,15.43317997,.0005701,97.3163,258.6899,37.7237,322.4410,0,U,55009,999,19622,.2305E-3,.10187E-3,0
BRO-8,2023-001C,2026-07-13T04:43:10.032096,15.50667211,.0005073,97.3193,259.7824,46.9427,313.2249,0,U,55011,999,19623,.37353E-3,.21373E-3,0
CONNECTA T1.2,2023-001D,2026-07-12T16:58:48.344736,15.52743920,.0004122,97.3248,264.8832,16.9652,343.1738,0,U,55012,999,19650,.46968E-3,.28991E-3,0
BIRKELAND,2023-001G,2026-07-13T04:44:07.145952,15.40517548,.0006639,97.3340,262.2393,27.8313,332.3287,0,U,55015,999,19635,.14604E-3,.5844E-4,0
ION SCV-008,2023-001AU,2026-07-12T19:56:57.997248,15.28863279,.0013189,97.5722,290.5837,282.5417,77.4347,0,U,55051,999,19525,.13398E-3,.3686E-4,0
ION SCV-007,2023-001BD,2026-07-13T03:14:00.584736,14.77575181,.001099,97.8994,256.6335,249.6176,110.3855,0,U,55060,999,19008,.36048E-4,.207E-5,0
HUYGENS,2023-001CN,2026-07-13T04:44:14.474400,15.40516281,.0008641,97.3244,261.4353,0.5172,359.6082,0,U,55093,999,19637,.14191E-3,.5679E-4,0
SHARJAHSAT-1,2023-001CZ,2026-07-13T03:17:20.842656,15.50067801,.000501,97.3161,263.2787,27.9952,332.1569,0,U,55104,999,19651,.26515E-3,.14814E-3,0
HORUS 1,2023-025A,2026-07-13T03:56:21.492960,15.23526098,.0002866,97.3460,268.2123,116.3985,243.7547,0,U,55690,999,18800,.15185E-3,.3557E-4,0
HORUS 2,2023-032A,2026-07-13T04:47:10.345056,15.23331713,.0000943,97.3530,269.0771,133.3898,226.7418,0,U,55844,999,18544,.13671E-3,.3176E-4,0
GLOBAL-19,2023-041B,2026-07-13T00:05:06.750240,15.38645913,.0009325,42.0024,51.2695,204.1950,155.8452,0,U,55982,999,18590,.253E-3,.9634E-4,0
ION SCV-010,2023-054Q,2026-07-12T17:28:49.959264,15.26410810,.0014513,97.3751,82.9031,111.9392,248.3391,0,U,56192,999,18009,.11009E-3,.28E-4,0
TELEOS-2,2023-057C,2026-07-13T02:00:06.410592,14.96416588,.0000941,9.9892,15.6203,275.2393,84.7713,0,U,56310,999,17668,.22342E-3,.3291E-4,0
SNIPE 4,2023-072B,2026-07-13T03:46:02.129376,15.43341068,.0004597,97.5230,41.0020,213.8820,146.2134,0,U,56744,999,17411,.34705E-3,.15397E-3,0
SNIPE 2,2023-072C,2026-07-13T04:28:09.785568,15.48155687,.0003078,97.5217,44.2624,243.4442,116.6493,0,U,56745,999,17426,.37965E-3,.19878E-3,0
2023-072G,2023-072G,2026-07-13T04:29:56.523264,15.52049217,.0002232,97.4873,43.0985,211.8173,148.2945,0,U,56749,999,17449,.34917E-3,.20969E-3,0
